NORAD_CAT_ID,OBJECT_NAME,OBJECT_TYPE,EPOCH,MEAN_MOTION,ECCENTRICITY,INCLINATION,RA_OF_ASC_NODE,ARG_OF_PERICENTER,MEAN_ANOMALY,BSTAR,MEAN_MOTION_DOT,MEAN_MOTION_DDOT,TLE_LINE0,TLE_LINE1,TLE_LINE2,SEMIMAJOR_AXIS,PERIOD,APOGEE,PERIGEE,DECAYED
51783.0,STARLINK-3628,PAYLOAD,2024-05-06 05:57:31,15.08848033,0.0001443,53.2166,117.8766,94.2677,265.848,0.00025277,3.738e-05,0.0,0 STARLINK-3628,1 51783U 22017R   24127.24827779  .00003738  00000-0  25277-3 0  9995,2 51783  53.2166 117.8766 0001443  94.2677 265.8480 15.08848033122549,6917.856,95.437,540.719,538.723,0.0
51783.0,STARLINK-3628,PAYLOAD,2024-05-06 09:08:17,15.08851585,0.0001456,53.2155,117.2818,92.4232,267.6926,0.00033461,5.043e-05,0.0,0 STARLINK-3628,1 51783U 22017R   24127.38075982  .00005043  00000-0  33461-3 0  9996,2 51783  53.2155 117.2818 0001456  92.4232 267.6926 15.08851585120921,6917.845,95.437,540.717,538.703,0.0
51783.0,STARLINK-3628,PAYLOAD,2024-05-07 04:12:55,15.08848702,0.0001492,53.2158,113.7132,94.3409,265.7753,0.00016375,2.32e-05,0.0,0 STARLINK-3628,1 51783U 22017R   24128.17563855  .00002320  00000-0  16375-3 0  9995,2 51783  53.2158 113.7132 0001492  94.3409 265.7753 15.08848702122680,6917.854,95.437,540.751,538.687,0.0
51783.0,STARLINK-3628,PAYLOAD,2024-05-07 08:59:04,15.08849835,0.0001533,53.216,112.8209,94.7769,265.3399,0.00014824,2.073e-05,0.0,0 STARLINK-3628,1 51783U 22017R   24128.37435676  .00002073  00000-0  14824-3 0  9998,2 51783  53.2160 112.8209 0001533  94.7769 265.3399 15.08849835121079,6917.85,95.437,540.776,538.655,0.0
51783.0,STARLINK-3628,PAYLOAD,2024-05-08 05:39:06,15.08838524,0.0001544,53.2179,108.9566,92.6597,267.4571,-3.7964e-05,-8.92e-06,0.0,0 STARLINK-3628,1 51783U 22017R   24129.23548694 -.00000892  00000-0 -37964-4 0  9999,2 51783  53.2179 108.9566 0001544  92.6597 267.4571 15.08838524122843,6917.885,95.438,540.818,538.682,0.0
51783.0,STARLINK-3628,PAYLOAD,2024-05-08 08:49:52,15.0883705,0.0001556,53.2178,108.3625,93.832,266.285,-3.9039e-05,-9.09e-06,0.0,0 STARLINK-3628,1 51783U 22017R   24129.36796809 -.00000909  00000-0 -39039-4 0  9990,2 51783  53.2178 108.3625 0001556  93.8320 266.2850 15.08837050121223,6917.889,95.438,540.831,538.678,0.0
51783.0,STARLINK-3628,PAYLOAD,2024-05-08 15:11:24,15.08838338,0.0001487,53.2177,107.1725,92.053,268.0632,-4.9185e-05,-1.071e-05,0.0,0 STARLINK-3628,1 51783U 22017R   24129.63292757 -.00001071  00000-0 -49185-4 0  9997,2 51783  53.2177 107.1725 0001487  92.0530 268.0632 15.08838338121269,6917.885,95.438,540.779,538.722,0.0
51783.0,STARLINK-3628,PAYLOAD,2024-05-09 05:29:52,15.08843111,0.0001295,53.2171,104.4957,92.741,267.373,8.4512e-05,1.057e-05,0.0,0 STARLINK-3628,1 51783U 22017R   24130.22908237  .00001057  00000-0  84512-4 0  9996,2 51783  53.2171 104.4957 0001295  92.7410 267.3730 15.08843111121357,6917.871,95.437,540.632,538.84,0.0
51783.0,STARLINK-3628,PAYLOAD,2024-05-09 15:02:11,15.08844446,0.0001331,53.2169,102.7117,100.9367,259.1775,3.5154e-05,2.72e-06,0.0,0 STARLINK-3628,1 51783U 22017R   24130.62652272  .00000272  00000-0  35154-4 0  9991,2 51783  53.2169 102.7117 0001331 100.9367 259.1775 15.08844446123056,6917.867,95.437,540.653,538.811,0.0
51783.0,STARLINK-3628,PAYLOAD,2024-05-10 06:56:03,15.08846924,0.0001447,53.2168,99.7385,94.075,266.0407,0.00026063,3.863e-05,0.0,0 STARLINK-3628,1 51783U 22017R   24131.28892375  .00003863  00000-0  26063-3 0  9991,2 51783  53.2168  99.7385 0001447  94.0750 266.0407 15.08846924121515,6917.859,95.437,540.725,538.723,0.0
51783.0,STARLINK-3628,PAYLOAD,2024-05-10 14:52:58,15.08844314,0.0001508,53.2177,98.2519,91.3844,268.732,0.0001834,2.632e-05,0.0,0 STARLINK-3628,1 51783U 22017R   24131.62012532  .00002632  00000-0  18340-3 0  9990,2 51783  53.2177  98.2519 0001508  91.3844 268.7320 15.08844314121569,6917.867,95.437,540.775,538.689,0.0
51783.0,STARLINK-3628,PAYLOAD,2024-05-11 05:11:25,15.08870955,0.000153,53.2175,95.5775,101.4765,258.6399,0.00061481,9.518e-05,0.0,0 STARLINK-3628,1 51783U 22017R   24132.21627227  .00009518  00000-0  61481-3 0  9993,2 51783  53.2175  95.5775 0001530 101.4765 258.6399 15.08870955123297,6917.786,95.436,540.709,538.592,0.0
51783.0,STARLINK-3628,PAYLOAD,2024-05-11 14:43:43,15.08894239,0.0001566,53.2179,93.7926,87.783,272.3342,0.00095592,0.00014981,0.0,0 STARLINK-3628,1 51783U 22017R   24132.61369737  .00014981  00000-0  95592-3 0  9996,2 51783  53.2179  93.7926 0001566  87.7830 272.3342 15.08894239123356,6917.715,95.434,540.663,538.496,0.0
51783.0,STARLINK-3628,PAYLOAD,2024-05-12 05:02:15,15.08745445,0.0001705,53.2178,91.1153,81.1857,278.9328,-0.0025879,-0.00041134,0.0,0 STARLINK-3628,1 51783U 22017R   24133.20990727 -.00041134  00000-0 -25879-2 0  9993,2 51783  53.2178  91.1153 0001705  81.1857 278.9328 15.08745445123441,6918.169,95.444,541.214,538.855,0.0
51783.0,STARLINK-3628,PAYLOAD,2024-05-12 14:34:37,15.08722245,0.0001736,53.2182,89.334,79.8162,280.3026,-0.0019813,-0.00031582,0.0,0 STARLINK-3628,1 51783U 22017R   24133.60737988 -.00031582  00000-0 -19813-2 0  9992,2 51783  53.2182  89.3340 0001736  79.8162 280.3026 15.08722245121869,6918.24,95.445,541.306,538.904,0.0
51783.0,STARLINK-3628,PAYLOAD,2024-05-12 20:56:10,15.08761804,0.0001781,53.2193,88.1422,83.9796,276.1399,-0.00013258,-2.393e-05,0.0,0 STARLINK-3628,1 51783U 22017R   24133.87234911 -.00002393  00000-0 -13258-3 0  9995,2 51783  53.2193  88.1422 0001781  83.9796 276.1399 15.08761804123545,6918.119,95.443,541.217,538.752,0.0
51783.0,STARLINK-3628,PAYLOAD,2024-05-13 03:17:43,15.08810482,0.0001615,53.2183,86.9509,93.5093,266.6084,0.0018279,0.00028899,0.0,0 STARLINK-3628,1 51783U 22017R   24134.13730461  .00028899  00000-0  18279-2 0  9990,2 51783  53.2183  86.9509 0001615  93.5093 266.6084 15.08810482123585,6917.971,95.439,540.953,538.718,0.0
51783.0,STARLINK-3628,PAYLOAD,2024-05-13 14:25:25,15.0882936,0.00017,53.2186,84.8698,93.4215,266.6971,0.0022135,0.00035105,0.0,0 STARLINK-3628,1 51783U 22017R   24134.60099343  .00035105  00000-0  22135-2 0  9993,2 51783  53.2186  84.8698 0001700  93.4215 266.6971 15.08829360122011,6917.913,95.438,540.954,538.602,0.0
51783.0,STARLINK-3628,PAYLOAD,2024-05-14 06:19:15,15.08883953,0.0001543,53.2174,81.8975,84.7876,275.3293,0.0012034,0.00018939,0.0,0 STARLINK-3628,1 51783U 22017R   24135.26337054  .00018939  00000-0  12034-2 0  9993,2 51783  53.2174  81.8975 0001543  84.7876 275.3293 15.08883953123758,6917.746,95.435,540.678,538.544,0.0
51783.0,STARLINK-3628,PAYLOAD,2024-05-15 02:59:12,15.08918831,0.0001436,53.2168,78.0307,83.4288,276.6868,0.0011446,0.00018015,0.0,0 STARLINK-3628,1 51783U 22017R   24136.12445191  .00018015  00000-0  11446-2 0  9992,2 51783  53.2168  78.0307 0001436  83.4288 276.6868 15.08918831122241,6917.639,95.433,540.498,538.511,0.0
51783.0,STARLINK-3628,PAYLOAD,2024-05-15 20:28:27,15.08858761,0.0001649,53.2176,74.7585,77.815,282.3027,-0.0002443,-4.176e-05,0.0,0 STARLINK-3628,1 51783U 22017R   24136.85309046 -.00004176  00000-0 -24430-3 0  9993,2 51783  53.2176  74.7585 0001649  77.8150 282.3027 15.08858761123991,6917.823,95.436,540.829,538.547,0.0
51783.0,STARLINK-3628,PAYLOAD,2024-05-16 12:22:18,15.08857697,0.0001243,53.2171,71.7862,106.2794,253.8335,-2.4977e-05,-6.86e-06,0.0,0 STARLINK-3628,1 51783U 22017R   24137.51548615 -.00000686  00000-0 -24977-4 0  9993,2 51783  53.2171  71.7862 0001243 106.2794 253.8335 15.08857697122454,6917.826,95.436,540.551,538.831,0.0
51783.0,STARLINK-3628,PAYLOAD,2024-05-17 02:40:46,15.08849971,0.0001457,53.2186,69.1122,104.8423,255.2731,0.00017929,2.567e-05,0.0,0 STARLINK-3628,1 51783U 22017R   24138.11164472  .00002567  00000-0  17929-3 0  9991,2 51783  53.2186  69.1122 0001457 104.8423 255.2731 15.08849971124184,6917.85,95.437,540.723,538.707,0.0
51783.0,STARLINK-3628,PAYLOAD,2024-05-17 12:13:05,15.08841646,0.0001376,53.2171,67.3245,80.4704,279.6443,0.0005482,8.448e-05,0.0,0 STARLINK-3628,1 51783U 22017R   24138.50909157  .00008448  00000-0  54820-3 0  9996,2 51783  53.2171  67.3245 0001376  80.4704 279.6443 15.08841646124243,6917.875,95.437,540.692,538.788,0.0
51783.0,STARLINK-3628,PAYLOAD,2024-05-18 04:06:57,15.08838227,0.0001282,53.2166,64.3539,118.298,241.8141,0.00030476,4.565e-05,0.0,0 STARLINK-3628,1 51783U 22017R   24139.17149667  .00004565  00000-0  30476-3 0  9999,2 51783  53.2166  64.3539 0001282 118.2980 241.8141 15.08838227124340,6917.886,95.438,540.638,538.864,0.0
51783.0,STARLINK-3628,PAYLOAD,2024-05-19 02:22:20,15.08876141,0.0001394,53.2179,60.1871,81.3429,278.7721,0.0012,0.0001888,0.0,0 STARLINK-3628,1 51783U 22017R   24140.09884958  .00018880  00000-0  12000-2 0  9998,2 51783  53.2179  60.1871 0001394  81.3429 278.7721 15.08876141124484,6917.77,95.435,540.599,538.671,0.0
51783.0,STARLINK-3628,PAYLOAD,2024-05-19 18:16:12,15.08844398,0.000155,53.2176,57.2156,119.9902,240.1244,0.00023116,3.393e-05,0.0,0 STARLINK-3628,1 51783U 22017R   24140.76125250  .00003393  00000-0  23116-3 0  9999,2 51783  53.2176  57.2156 0001550 119.9902 240.1244 15.08844398124585,6917.867,95.437,540.804,538.66,0.0
51783.0,STARLINK-3628,PAYLOAD,2024-05-20 00:37:44,15.08845475,0.000119,53.2176,56.0244,120.5368,239.5742,0.00044924,6.87e-05,0.0,0 STARLINK-3628,1 51783U 22017R   24141.02621391  .00006870  00000-0  44924-3 0  9999,2 51783  53.2176  56.0244 0001190 120.5368 239.5742 15.08845475122988,6917.864,95.437,540.552,538.905,0.0
51783.0,STARLINK-3628,PAYLOAD,2024-05-20 21:17:46,15.08830307,0.0001066,53.2179,52.1648,65.2194,294.8909,0.00037612,5.702e-05,0.0,0 STARLINK-3628,1 51783U 22017R   24141.88734709  .00005702  00000-0  37612-3 0  9990,2 51783  53.2179  52.1648 0001066  65.2194 294.8909 15.08830307124754,6917.91,95.438,540.512,539.038,0.0
51783.0,STARLINK-3628,PAYLOAD,2024-05-21 03:39:18,15.08844729,0.000142,53.2178,50.97,115.3824,244.7315,0.00019073,2.749e-05,0.0,0 STARLINK-3628,1 51783U 22017R   24142.15229778  .00002749  00000-0  19073-3 0  9995,2 51783  53.2178  50.9700 0001420 115.3824 244.7315 15.08844729124791,6917.866,95.437,540.713,538.749,0.0
